*******************************************************************************
JPL/HORIZONS               3434 Hurless (1981 VO)          2023-Sep-04 11:23:34
Rec #:    3434 (+COV) Soln.date: 2023-Aug-23_10:19:19   # obs: 2989 (1951-2023)
 
IAU76/J2000 helio. ecliptic osc. elements (au, days, deg., period=Julian yrs):
 
  EPOCH=  2457429.5 ! 2016-Feb-11.00 (TDB)         Residual RMS= .29752
   EC= .2303644072767616   QR= 2.030850183405654   TP= 2457300.9169783839
   OM= 88.15931618364752   W=  262.2040644694863   IN= 3.448585980048082
   A= 2.638716559638048    MA= 29.56640947171277   ADIST= 3.246582935870443
   PER= 4.28645            N= .229940229           ANGMOM= .027191757
   DAN= 2.57928            DDN= 2.42297            L= 350.3494124
   B= -3.4166743           MOID= 1.02619004        TP= 2015-Oct-05.4169783839
 
Asteroid physical parameters (km, seconds, rotational period in hours):
   GM= n.a.                RAD= 6.8425             ROTPER= n.a.
   H= 13.41                G= .150                 B-V= n.a.
                           ALBEDO= .049            STYP= n.a.

ASTEROID comments: 
1: soln ref.= JPL#59, OCC=0
2: source=ORB
*******************************************************************************


*******************************************************************************
Ephemeris / API_USER Mon Sep  4 11:23:34 2023 Pasadena, USA      / Horizons
*******************************************************************************
Target body name: 3434 Hurless (1981 VO)          {source: JPL#59}
Center body name: Solar System Barycenter (0)     {source: DE441}
Center-site name: BODY CENTER
*******************************************************************************
Start time      : A.D. 2023-Aug-12 00:00:00.0000 TDB
Stop  time      : A.D. 2023-Aug-13 00:00:00.0000 TDB
Step-size       : 2880 minutes
*******************************************************************************
Center geodetic : 0.0, 0.0, 0.0                   {E-lon(deg),Lat(deg),Alt(km)}
Center cylindric: 0.0, 0.0, 0.0                   {E-lon(deg),Dxy(km),Dz(km)}
Center radii    : (undefined)
Small perturbers: Yes                             {source: SB441-N16}
Output units    : KM-S
Calendar mode   : Mixed Julian/Gregorian
Output type     : GEOMETRIC cartesian states
Output format   : 2 (position and velocity)
Reference frame : Ecliptic of J2000.0
*******************************************************************************
Initial IAU76/J2000 heliocentric ecliptic osculating elements (au, days, deg.):
  EPOCH=  2457429.5 ! 2016-Feb-11.00 (TDB)         Residual RMS= .29752        
   EC= .2303644072767616   QR= 2.030850183405654   TP= 2457300.9169783839      
   OM= 88.15931618364752   W=  262.2040644694863   IN= 3.448585980048082       
  Equivalent ICRF heliocentric cartesian coordinates (au, au/d):
   X= 1.720536173702029E+00  Y= 1.230592100085111E+00  Z= 4.233144248660760E-01
  VX=-6.113069689492403E-03 VY= 1.008940069499512E-02 VZ= 4.799158369055257E-03
Asteroid physical parameters (km, seconds, rotational period in hours):        
   GM= n.a.                RAD= 6.8425             ROTPER= n.a.                
   H= 13.41                G= .150                 B-V= n.a.                   
                           ALBEDO= .049            STYP= n.a.                  
*******************************************************************************
JDTDB
   X     Y     Z
   VX    VY    VZ
*******************************************************************************
$$SOE
2460168.500000000 = A.D. 2023-Aug-12 00:00:00.0000 TDB 
 X =-4.300055478825451E+07 Y =-3.678145297044484E+08 Z = 1.810849228534862E+06
 VX= 1.938865240065849E+01 VY= 2.098380305915543E+00 VZ=-1.163424465571761E+00
$$EOE
*******************************************************************************
 
TIME

  Barycentric Dynamical Time ("TDB" or T_eph) output was requested. This
continuous coordinate time is equivalent to the relativistic proper time
of a clock at rest in a reference frame co-moving with the solar system
barycenter but outside the system's gravity well. It is the independent
variable in the solar system relativistic equations of motion.

  TDB runs at a uniform rate of one SI second per second and is independent
of irregularities in Earth's rotation.
 
CALENDAR SYSTEM

  Mixed calendar mode was active such that calendar dates after AD 1582-Oct-15
(if any) are in the modern Gregorian system. Dates prior to 1582-Oct-5 (if any)
are in the Julian calendar system, which is automatically extended for dates
prior to its adoption on 45-Jan-1 BC.  The Julian calendar is useful for
matching historical dates. The Gregorian calendar more accurately corresponds
to the Earth's orbital motion and seasons. A "Gregorian-only" calendar mode is
available if such physical events are the primary interest.

REFERENCE FRAME AND COORDINATES

  Ecliptic at the standard reference epoch

    Reference epoch: J2000.0
    X-Y plane: adopted Earth orbital plane at the reference epoch
               Note: IAU76 obliquity of 84381.448 arcseconds wrt ICRF X-Y plane
    X-axis   : ICRF
    Z-axis   : perpendicular to the X-Y plane in the directional (+ or -) sense
               of Earth's north pole at the reference epoch.

  Symbol meaning:

    JDTDB    Julian Day Number, Barycentric Dynamical Time
      X      X-component of position vector (km)
      Y      Y-component of position vector (km)
      Z      Z-component of position vector (km)
      VX     X-component of velocity vector (km/sec)                           
      VY     Y-component of velocity vector (km/sec)                           
      VZ     Z-component of velocity vector (km/sec)                           

ABERRATIONS AND CORRECTIONS

 Geometric state vectors have NO corrections or aberrations applied.

Computations by ...

    Solar System Dynamics Group, Horizons On-Line Ephemeris System
    4800 Oak Grove Drive, Jet Propulsion Laboratory
    Pasadena, CA  91109   USA

    General site: https://ssd.jpl.nasa.gov/
    Mailing list: https://ssd.jpl.nasa.gov/email_list.html
    System news : https://ssd.jpl.nasa.gov/horizons/news.html
    User Guide  : https://ssd.jpl.nasa.gov/horizons/manual.html
    Connect     : browser        https://ssd.jpl.nasa.gov/horizons/app.html#/x
                  API            https://ssd-api.jpl.nasa.gov/doc/horizons.html
                  command-line   telnet ssd.jpl.nasa.gov 6775
                  e-mail/batch   https://ssd.jpl.nasa.gov/ftp/ssd/hrzn_batch.txt
                  scripts        https://ssd.jpl.nasa.gov/ftp/ssd/SCRIPTS
    Author      : Jon.D.Giorgini@jpl.nasa.gov
*******************************************************************************
